      2.10          N: GNSS NAV DATA                        RINEX VERSION / TYPE
fic2rin                                 03/04/2020 00:20:23 PGM / RUN BY / DATE
                                                            END OF HEADER
20 20  3  3  4  0  0.0 5.278796888888e-04 0.000000000000e+00 0.000000000000e+00
    9.100000000000e+01-3.037500000000e+01 5.244504168935e-09 2.327018732276e+00
   -1.404434442520e-06 5.033171270043e-03 8.279457688332e-06 5.153630756378e+03
    1.872000000000e+05 1.229345798492e-07-7.953980949976e-01 1.341104507446e-07
    9.332182423428e-01 2.053437500000e+02 2.608895073695e+00-8.323918153174e-09
    1.685784505406e-10 1.000000000000e+00 2.095000000000e+03 0.000000000000e+00
    2.400000000000e+00 0.000000000000e+00-8.847564458847e-09 9.100000000000e+01
    1.800000000000e+05 4.000000000000e+00
18 20  3  3  4  0  0.0 5.323439836502e-06 1.705302565824e-12 0.000000000000e+00
    8.800000000000e+01-6.284375000000e+01 4.516973864378e-09 2.541550783917e+00
   -3.356486558914e-06 1.570212526713e-02 6.971880793571e-06 5.153637680054e+03
    1.872000000000e+05 1.508742570877e-07-1.766872875427e+00-1.601874828339e-07
    9.574152701775e-01 2.395625000000e+02 1.455754720953e+00-7.841755212009e-09
    0.000000000000e+00 1.000000000000e+00 2.095000000000e+03 0.000000000000e+00
    2.400000000000e+00 6.300000000000e+01-5.587935447693e-09 8.800000000000e+01
    1.800000000000e+05 4.000000000000e+00
 4 20  3  3  4  0  0.0-5.687959492207e-05-5.343281372916e-12 0.000000000000e+00
    8.300000000000e+01-7.000000000000e+00 4.610906348471e-09-2.211747231784e+00
   -4.470348358154e-07 5.837440257892e-04 7.813796401024e-06 5.153710901260e+03
    1.872000000000e+05-3.352761268616e-08 4.138361164725e-01 9.313225746155e-09
    9.602548775557e-01 2.288750000000e+02-2.692669987439e+00-7.996047353182e-09
   -1.260766801712e-10 1.000000000000e+00 2.095000000000e+03 0.000000000000e+00
    2.400000000000e+00 0.000000000000e+00-4.190951585770e-09 8.510000000000e+02
    1.804200000000e+05 4.000000000000e+00
29 20  3  3  3 59 44.0-4.710443317890e-05-9.322320693173e-12 0.000000000000e+00
    8.000000000000e+00-2.318750000000e+01 4.192674641728e-09-9.220020655211e-01
   -1.274049282074e-06 1.143830944784e-03 4.548579454422e-06 5.153619571686e+03
    1.871840000000e+05-1.490116119385e-08-2.691696187242e+00 1.490116119385e-08
    9.859384057092e-01 3.095312500000e+02 1.883329187420e+00-8.084265313528e-09
   -5.000208278745e-12 1.000000000000e+00 2.095000000000e+03 0.000000000000e+00
    2.400000000000e+00 0.000000000000e+00-1.024454832077e-08 8.000000000000e+00
    1.828500000000e+05 4.000000000000e+00
 9 20  3  3  3 59 44.0-1.681977882981e-04-8.299139153678e-12 0.000000000000e+00
    8.000000000000e+00-5.843750000000e+00 4.845201822104e-09-8.870142906085e-01
   -3.576278686523e-07 1.698506530374e-03 7.748603820801e-06 5.153776504517e+03
    1.871840000000e+05-1.676380634308e-08 3.666099009911e-01 5.587935447693e-09
    9.529707290217e-01 2.260312500000e+02 1.788445289251e+00-8.166411592393e-09
   -1.203621564241e-10 1.000000000000e+00 2.095000000000e+03 0.000000000000e+00
    2.400000000000e+00 0.000000000000e+00 1.396983861923e-09 8.000000000000e+00
    1.834500000000e+05 4.000000000000e+00
 9 20  3  3  5 59 44.0-1.682573929429e-04-8.299139153678e-12 0.000000000000e+00
    9.000000000000e+00-7.000000000000e+00 4.861988235611e-09 1.629334446605e-01
   -4.433095455170e-07 1.697564381175e-03 7.353723049164e-06 5.153774635315e+03
    1.943840000000e+05-2.235174179077e-08 3.665511619043e-01-3.725290298462e-09
    9.529698337158e-01 2.329375000000e+02 1.788618481196e+00-8.164268645988e-09
   -1.289339420448e-10 1.000000000000e+00 2.095000000000e+03 0.000000000000e+00
    2.400000000000e+00 0.000000000000e+00 1.396983861923e-09 9.000000000000e+00
    1.872000000000e+05 4.000000000000e+00
29 20  3  3  5 59 44.0-4.717195406556e-05-9.322320693173e-12 0.000000000000e+00
    3.700000000000e+01-2.321875000000e+01 4.071598169835e-09 1.285028776892e-01
   -1.339241862297e-06 1.144874026068e-03 4.602596163750e-06 5.153621631622e+03
    1.943840000000e+05-1.490116119385e-08-2.691754548896e+00 4.842877388000e-08
    9.859384569113e-01 3.015625000000e+02 1.883035025316e+00-8.084979628997e-09
    2.357241045694e-11 1.000000000000e+00 2.095000000000e+03 0.000000000000e+00
    2.400000000000e+00 0.000000000000e+00-1.024454832077e-08 3.700000000000e+01
    1.872000000000e+05 4.000000000000e+00
20 20  3  3  5 59 44.0 5.278796888888e-04 0.000000000000e+00 0.000000000000e+00
    2.000000000000e+01-2.925000000000e+01 5.210574184187e-09-2.908339589549e+00
   -1.426786184311e-06 5.033359862864e-03 8.525326848030e-06 5.153630554199e+03
    1.943840000000e+05-4.656612873077e-08-7.954581419331e-01 8.754432201385e-08
    9.332202231339e-01 2.009375000000e+02 2.608946528912e+00-8.229628511346e-09
    2.742971398626e-10 1.000000000000e+00 2.095000000000e+03 0.000000000000e+00
    2.400000000000e+00 0.000000000000e+00-8.847564458847e-09 2.000000000000e+01
    1.872000000000e+05 4.000000000000e+00
 1 20  3  3  6  0  0.0-3.134654834867e-04-1.227817847393e-11 0.000000000000e+00
    2.100000000000e+01-7.065625000000e+01 4.154815921903e-09-2.376790878720e+00
   -3.788620233536e-06 9.464592556469e-03 7.255002856255e-06 5.153633445740e+03
    1.944000000000e+05 1.154839992523e-07-1.705751635814e+00-1.192092895508e-07
    9.788418091246e-01 2.486562500000e+02 7.543113882799e-01-7.770323665170e-09
    1.796503403006e-10 1.000000000000e+00 2.095000000000e+03 0.000000000000e+00
    2.400000000000e+00 0.000000000000e+00 5.587935447693e-09 2.100000000000e+01
    1.872000000000e+05 4.000000000000e+00
 2 20  3  3  6  0  0.0-4.151179455221e-04-6.821210263297e-12 0.000000000000e+00
    5.100000000000e+01-5.271875000000e+01 4.569476051305e-09-2.113487092775e+00
   -2.527609467506e-06 1.980845874641e-02 7.027760148048e-06 5.153648057938e+03
    1.944000000000e+05 2.775341272354e-07-1.780305626224e+00 1.490116119385e-07
    9.578904186551e-01 2.364687500000e+02-1.651941646755e+00-7.811753962337e-09
    1.739358165535e-10 1.000000000000e+00 2.095000000000e+03 0.000000000000e+00
    2.400000000000e+00 0.000000000000e+00-1.769512891769e-08 5.100000000000e+01
    1.872000000000e+05 4.000000000000e+00
 3 20  3  3  6  0  0.0-1.083132810891e-04-9.436007530894e-12 0.000000000000e+00
    3.400000000000e+01-2.446875000000e+01 4.465543150654e-09 2.801582228391e+00
   -1.339241862297e-06 2.654028474353e-03 8.378177881241e-06 5.153603122711e+03
    1.944000000000e+05-4.097819328308e-08-6.643903577709e-01-7.450580596924e-08
    9.651227901295e-01 2.178750000000e+02 7.149886930518e-01-7.879971089568e-09
    1.964367538078e-10 1.000000000000e+00 2.095000000000e+03 0.000000000000e+00
    2.400000000000e+00 0.000000000000e+00 1.862645149231e-09 3.400000000000e+01
    1.872000000000e+05 4.000000000000e+00
 7 20  3  3  6  0  0.0-2.272473648190e-04-8.526512829121e-12 0.000000000000e+00
    5.000000000000e+00 3.271875000000e+01 4.495901558060e-09-3.118270001651e+00
    1.590698957443e-06 1.338945527095e-02 9.203329682350e-06 5.153690063477e+03
    1.944000000000e+05-3.725290298462e-09 1.441154832169e+00-1.136213541031e-07
    9.533663766792e-01 1.976562500000e+02-2.415179114544e+00-7.771395138373e-09
   -1.682212928064e-10 1.000000000000e+00 2.095000000000e+03 0.000000000000e+00
    2.400000000000e+00 0.000000000000e+00-1.117587089539e-08 5.000000000000e+00
    1.872000000000e+05 4.000000000000e+00
 5 20  3  3  6  0  0.0-8.496921509504e-06-5.684341886081e-13 0.000000000000e+00
    4.800000000000e+01-2.228125000000e+01 4.922347892690e-09 5.253670217481e-01
   -9.201467037201e-07 5.778441205621e-03 8.059665560722e-06 5.153609312057e+03
    1.944000000000e+05-3.911554813385e-08-6.950996371185e-01 7.264316082001e-08
    9.519969829527e-01 2.181250000000e+02 7.900842484203e-01-8.257486814613e-09
    1.542921411727e-10 1.000000000000e+00 2.095000000000e+03 0.000000000000e+00
    2.400000000000e+00 0.000000000000e+00-1.117587089539e-08 4.800000000000e+01
    1.872000000000e+05 4.000000000000e+00
22 20  3  3  6  0  0.0-7.852725684643e-04-3.410605131648e-13 0.000000000000e+00
    5.300000000000e+01-2.712500000000e+01 5.350222858257e-09-1.145502338953e+00
   -1.391395926476e-06 7.138387882151e-03 8.339062333107e-06 5.153557527542e+03
    1.944000000000e+05-1.508742570877e-07-7.477054061428e-01-5.029141902924e-08
    9.299507182602e-01 2.017812500000e+02-1.213476745583e+00-8.471424297397e-09
    2.357241045694e-10 1.000000000000e+00 2.095000000000e+03 0.000000000000e+00
    2.400000000000e+00 0.000000000000e+00-1.816079020500e-08 5.300000000000e+01
    1.872000000000e+05 4.000000000000e+00
16 20  3  3  6  0  0.0-1.307823695242e-04-4.206412995700e-12 0.000000000000e+00
    3.400000000000e+01 7.621875000000e+01 4.009095566351e-09 6.806190551556e-01
    4.064291715622e-06 1.147079770453e-02 6.549060344696e-06 5.153727321625e+03
    1.944000000000e+05-9.872019290924e-08 2.565162483599e+00 1.452863216400e-07
    9.796799690202e-01 2.624062500000e+02 6.079764725462e-01-8.056407010261e-09
    1.107188976008e-11 1.000000000000e+00 2.095000000000e+03 0.000000000000e+00
    2.400000000000e+00 0.000000000000e+00-1.071020960808e-08 3.400000000000e+01
    1.872000000000e+05 4.000000000000e+00
13 20  3  3  6  0  0.0-8.632894605398e-06 2.842170943040e-12 0.000000000000e+00
    6.100000000000e+01-2.843750000000e+00 4.488758403376e-09-1.049215895871e+00
   -2.328306436539e-07 4.156746668741e-03 7.864087820053e-06 5.153658571243e+03
    1.944000000000e+05-9.313225746155e-09 5.080711899930e-01 1.285225152969e-07
    9.681158590772e-01 2.304687500000e+02 1.146103188667e+00-7.980689570611e-09
   -2.567964108870e-10 1.000000000000e+00 2.095000000000e+03 0.000000000000e+00
    2.400000000000e+00 0.000000000000e+00-1.117587089539e-08 6.100000000000e+01
    1.872000000000e+05 4.000000000000e+00
